[{"OBJECT_NAME":"SBSS (USA 216)","OBJECT_ID":"2010-048A","EPOCH":"2026-03-09T21:16:11.917056","MEAN_MOTION":15.1572421,"ECCENTRICITY":0.0082264,"INCLINATION":97.7474,"RA_OF_ASC_NODE":312.3885,"ARG_OF_PERICENTER":184.8326,"MEAN_ANOMALY":306.5835,"EPHEMERIS_TYPE":0,"CLASSIFICATION_TYPE":"U","NORAD_CAT_ID":37168,"ELEMENT_SET_NO":999,"REV_AT_EPOCH":83742,"BSTAR":0.00024191,"MEAN_MOTION_DOT":4.946e-5,"MEAN_MOTION_DDOT":0},{"OBJECT_NAME":"STARLINK-35345","OBJECT_ID":"2025-221L","EPOCH":"2026-03-09T08:26:54.615264","MEAN_MOTION":15.30204197,"ECCENTRICITY":0.00012905,"INCLINATION":53.1584,"RA_OF_ASC_NODE":89.7746,"ARG_OF_PERICENTER":88.4744,"MEAN_ANOMALY":271.6405,"EPHEMERIS_TYPE":0,"CLASSIFICATION_TYPE":"U","NORAD_CAT_ID":65833,"ELEMENT_SET_NO":999,"REV_AT_EPOCH":2603,"BSTAR":0.001009766,"MEAN_MOTION_DOT":0.00029671,"MEAN_MOTION_DDOT":0}]
